IRIDIUM 69 [-]          
1 25319U 98026A   24026.84562809  .00001041  00000+0  32609-3 0  9999
2 25319  86.4005 309.4666 0000405 188.7384 171.3808 14.39774539350274
IRIDIUM 71 [-]          
1 25320U 98026B   24026.80787230  .00000826  00000+0  25582-3 0  9996
2 25320  86.3992 304.2788 0001938  24.1301 335.9989 14.40096369350797
IRIDIUM 73 [-]          
1 25344U 98032C   24026.69847886  .00000893  00000+0  22421-3 0  9993
2 25344  86.4397 261.9559 0001444  89.1864 270.9506 14.50263594357275
IRIDIUM 82 [-]          
1 25467U 98051A   24026.94446558  .00021822  00000+0  12043-2 0  9992
2 25467  86.3959 352.9234 0140029  22.7315 338.0037 15.05721054347053
IRIDIUM 2 [-]           
1 25527U 98066A   24027.07409161  .00063374  00000+0  10347-2 0  9992
2 25527  85.5129  34.0236 0006881 120.3917 239.8023 15.52310860385180
